{
"type": "FeatureCollection",
"name": "blue_line_sfo",
"crs": { "type": "name", "properties": { "name": "urn:ogc:def:crs:OGC:1.3:CRS84" } },
"features": [
{ "type": "Feature", "properties": { "id": "way/38852089", "@id": "way/38852089", "area": null, "covered": null, "indoor": null, "layer": "5", "level": null, "monorail": "rubber_tyres", "network": null, "public_transport": null, "railway": "monorail", "bench": null, "bin": null, "lit": null, "tactile_paving": null, "wheelchair": null, "bridge": "yes", "name": "SFO AirTrain", "railway:cbtc": "uto", "railway:preferred_direction": "forward", "service": null, "bridge:structure": null }, "geometry": { "type": "LineString", "coordinates": [ [ -122.400592, 37.6308977 ], [ -122.4012225, 37.6299422 ], [ -122.4012427, 37.6299107 ], [ -122.4012626, 37.6298791 ], [ -122.4012819, 37.6298472 ], [ -122.4012988, 37.6298178 ], [ -122.4013153, 37.6297873 ], [ -122.4013316, 37.6297548 ], [ -122.4013471, 37.6297212 ], [ -122.4013605, 37.6296892 ], [ -122.4013734, 37.6296559 ], [ -122.4013861, 37.6296215 ], [ -122.4013972, 37.629587 ], [ -122.4014079, 37.6295496 ], [ -122.4014167, 37.629516 ], [ -122.4014249, 37.6294801 ], [ -122.4014315, 37.6294441 ], [ -122.4014372, 37.6294063 ], [ -122.4014413, 37.6293711 ], [ -122.4014446, 37.629328 ], [ -122.4014463, 37.629293 ], [ -122.4014467, 37.6292567 ], [ -122.4014461, 37.6292209 ], [ -122.4014439, 37.6291863 ], [ -122.4014412, 37.6291525 ], [ -122.4014371, 37.6291179 ], [ -122.4014282, 37.6290502 ], [ -122.4013907, 37.6288199 ] ] } },
{ "type": "Feature", "properties": { "id": "way/93670218", "@id": "way/93670218", "area": null, "covered": null, "indoor": null, "layer": "5", "level": "3", "monorail": "rubber_tyres", "network": null, "public_transport": null, "railway": "monorail", "bench": null, "bin": null, "lit": null, "tactile_paving": null, "wheelchair": null, "bridge": "yes", "name": "SFO AirTrain", "railway:cbtc": "uto", "railway:preferred_direction": "forward", "service": null, "bridge:structure": null }, "geometry": { "type": "LineString", "coordinates": [ [ -122.3906537, 37.6140747 ], [ -122.3904033, 37.6141368 ], [ -122.3903216, 37.6141563 ], [ -122.390237, 37.6141759 ], [ -122.3901583, 37.6141937 ], [ -122.3899879, 37.6142312 ], [ -122.3899052, 37.6142496 ], [ -122.3898381, 37.6142653 ], [ -122.3897712, 37.6142812 ], [ -122.3896874, 37.6143015 ], [ -122.3896045, 37.6143216 ], [ -122.3886127, 37.6145648 ], [ -122.3873222, 37.6148838 ], [ -122.3872791, 37.6148942 ], [ -122.3872386, 37.6149032 ], [ -122.3871988, 37.614912 ], [ -122.387155, 37.6149209 ], [ -122.3871147, 37.6149285 ], [ -122.3870712, 37.614936 ], [ -122.3870307, 37.6149427 ], [ -122.3869878, 37.6149487 ], [ -122.3869438, 37.6149541 ], [ -122.3869015, 37.6149584 ], [ -122.3868597, 37.6149623 ], [ -122.3868128, 37.6149661 ], [ -122.3867709, 37.6149692 ], [ -122.3863103, 37.6149992 ], [ -122.386273, 37.6150024 ], [ -122.3862322, 37.6150074 ], [ -122.3861909, 37.6150133 ], [ -122.3861519, 37.6150201 ], [ -122.3861107, 37.6150285 ], [ -122.386065, 37.6150385 ], [ -122.3860223, 37.6150486 ], [ -122.3852981, 37.6152264 ], [ -122.38526, 37.6152367 ], [ -122.3852203, 37.6152485 ], [ -122.3851801, 37.615262 ], [ -122.3851395, 37.6152787 ], [ -122.3851022, 37.6152972 ], [ -122.3850654, 37.615318 ], [ -122.3850313, 37.6153407 ], [ -122.3850029, 37.6153647 ], [ -122.3849757, 37.6153909 ], [ -122.3849535, 37.6154167 ], [ -122.3849311, 37.6154457 ], [ -122.3849098, 37.6154761 ], [ -122.3848898, 37.6155058 ], [ -122.3844544, 37.616164 ], [ -122.3844358, 37.6161943 ], [ -122.3844184, 37.6162276 ], [ -122.3844043, 37.6162609 ], [ -122.3843957, 37.6162927 ], [ -122.3843909, 37.6163253 ], [ -122.3843907, 37.6163617 ], [ -122.3843947, 37.6163966 ], [ -122.3844018, 37.6164287 ], [ -122.3844127, 37.6164612 ], [ -122.3846341, 37.617034 ], [ -122.3846454, 37.6170617 ], [ -122.3846556, 37.6170854 ], [ -122.3846719, 37.6171152 ], [ -122.3846931, 37.6171471 ], [ -122.3847175, 37.6171762 ], [ -122.3847435, 37.6172022 ], [ -122.3847727, 37.6172253 ], [ -122.3848077, 37.6172482 ], [ -122.384837, 37.6172638 ], [ -122.3848664, 37.6172779 ], [ -122.3848953, 37.6172904 ], [ -122.3849299, 37.6173051 ], [ -122.3857122, 37.6176335 ], [ -122.3857518, 37.6176493 ], [ -122.3857914, 37.6176649 ], [ -122.385832, 37.6176794 ], [ -122.3858747, 37.6176923 ], [ -122.3859146, 37.6177012 ], [ -122.385955, 37.6177073 ], [ -122.3859997, 37.6177115 ], [ -122.3860448, 37.6177121 ], [ -122.3860847, 37.6177102 ], [ -122.3861265, 37.6177057 ], [ -122.3861709, 37.617698 ], [ -122.386214, 37.6176889 ], [ -122.3862534, 37.6176798 ], [ -122.3869513, 37.6175083 ], [ -122.3869905, 37.6174983 ], [ -122.3870372, 37.6174862 ], [ -122.3870818, 37.6174745 ], [ -122.3871307, 37.6174612 ], [ -122.387177, 37.617447 ], [ -122.3872198, 37.6174335 ], [ -122.3872647, 37.6174186 ], [ -122.3873114, 37.6174027 ], [ -122.3873571, 37.6173859 ], [ -122.3874075, 37.6173672 ], [ -122.3880657, 37.6171147 ], [ -122.3881467, 37.6170845 ], [ -122.3882229, 37.6170575 ], [ -122.388298, 37.6170322 ], [ -122.388371, 37.61701 ], [ -122.3884394, 37.6169903 ], [ -122.3885151, 37.6169697 ], [ -122.388595, 37.616949 ], [ -122.3886714, 37.6169298 ], [ -122.3897849, 37.616655 ], [ -122.3905133, 37.6164768 ], [ -122.3908675, 37.616391 ], [ -122.3909679, 37.6163654 ], [ -122.3910755, 37.6163527 ], [ -122.3913952, 37.6163278 ], [ -122.3915303, 37.6163113 ], [ -122.3916981, 37.6162817 ], [ -122.3931112, 37.615934 ], [ -122.3938299, 37.6157567 ], [ -122.3938886, 37.6157422 ] ] } },
{ "type": "Feature", "properties": { "id": "way/93671417", "@id": "way/93671417", "area": null, "covered": null, "indoor": null, "layer": "5", "level": null, "monorail": "rubber_tyres", "network": null, "public_transport": null, "railway": "monorail", "bench": null, "bin": null, "lit": null, "tactile_paving": null, "wheelchair": null, "bridge": "yes", "name": "SFO AirTrain", "railway:cbtc": "uto", "railway:preferred_direction": "forward", "service": null, "bridge:structure": null }, "geometry": { "type": "LineString", "coordinates": [ [ -122.3938886, 37.6157422 ], [ -122.3940621, 37.6157004 ], [ -122.3941022, 37.615691 ], [ -122.3941405, 37.6156825 ], [ -122.3941769, 37.6156757 ], [ -122.394219, 37.6156689 ], [ -122.3942624, 37.6156642 ], [ -122.3943076, 37.6156609 ], [ -122.3943488, 37.615659 ], [ -122.394391, 37.6156579 ], [ -122.3944351, 37.6156575 ], [ -122.3947898, 37.6156554 ], [ -122.3957066, 37.6156507 ], [ -122.3965298, 37.615646 ], [ -122.3965983, 37.6156465 ], [ -122.3966331, 37.6156468 ], [ -122.3966704, 37.6156477 ], [ -122.3967108, 37.6156499 ], [ -122.3967428, 37.6156524 ], [ -122.3967766, 37.6156563 ], [ -122.3968137, 37.615662 ], [ -122.3968495, 37.6156694 ], [ -122.3968912, 37.6156798 ], [ -122.3969318, 37.615692 ], [ -122.39697, 37.6157041 ], [ -122.3970096, 37.6157195 ], [ -122.3970494, 37.6157374 ], [ -122.397084, 37.6157551 ], [ -122.3971165, 37.6157738 ], [ -122.3971534, 37.615797 ], [ -122.3971855, 37.6158209 ], [ -122.3972152, 37.6158452 ], [ -122.3972413, 37.6158689 ], [ -122.3972691, 37.6158976 ], [ -122.3972942, 37.6159268 ], [ -122.3973165, 37.6159548 ], [ -122.3973361, 37.6159835 ], [ -122.3973541, 37.6160144 ], [ -122.3973716, 37.6160473 ], [ -122.3973902, 37.6160883 ], [ -122.3974148, 37.6161495 ], [ -122.3985769, 37.6193341 ], [ -122.3986132, 37.6194325 ], [ -122.3986386, 37.6194988 ], [ -122.3986644, 37.6195643 ], [ -122.3986917, 37.6196309 ], [ -122.3987176, 37.6196935 ], [ -122.3989303, 37.6201832 ], [ -122.3989576, 37.6202478 ], [ -122.3989828, 37.6203117 ], [ -122.3990082, 37.6203788 ], [ -122.3990327, 37.620447 ], [ -122.3990551, 37.6205112 ], [ -122.3992862, 37.6211931 ], [ -122.399518, 37.6218765 ], [ -122.3996517, 37.6222691 ], [ -122.3997102, 37.6224432 ], [ -122.3997305, 37.6225061 ], [ -122.3997517, 37.6225732 ], [ -122.3997802, 37.6226714 ], [ -122.3998083, 37.6227736 ], [ -122.3998608, 37.6229747 ], [ -122.3999227, 37.6232116 ], [ -122.3999322, 37.6232476 ], [ -122.3999498, 37.6233109 ], [ -122.3999703, 37.6233794 ], [ -122.3999903, 37.6234452 ], [ -122.4000116, 37.6235135 ], [ -122.4000323, 37.6235766 ], [ -122.4001327, 37.6238775 ], [ -122.4006968, 37.6255547 ], [ -122.400735, 37.6256678 ] ] } },
{ "type": "Feature", "properties": { "id": "way/93673685", "@id": "way/93673685", "area": null, "covered": null, "indoor": null, "layer": "5", "level": null, "monorail": "rubber_tyres", "network": null, "public_transport": null, "railway": "monorail", "bench": null, "bin": null, "lit": null, "tactile_paving": null, "wheelchair": null, "bridge": "yes", "name": "SFO AirTrain", "railway:cbtc": "uto", "railway:preferred_direction": null, "service": "crossover", "bridge:structure": null }, "geometry": { "type": "LineString", "coordinates": [ [ -122.4011864, 37.6275699 ], [ -122.4011893, 37.6275987 ], [ -122.4011898, 37.627615 ], [ -122.4011878, 37.6276328 ], [ -122.401181, 37.6276538 ], [ -122.4011705, 37.627677 ], [ -122.4011568, 37.627699 ], [ -122.4011328, 37.6277329 ], [ -122.4011184, 37.6277593 ], [ -122.4011079, 37.6277851 ], [ -122.401103, 37.627807 ], [ -122.4011014, 37.6278256 ], [ -122.4011027, 37.6278568 ] ] } },
{ "type": "Feature", "properties": { "id": "way/93673700", "@id": "way/93673700", "area": null, "covered": null, "indoor": null, "layer": "5", "level": null, "monorail": "rubber_tyres", "network": null, "public_transport": null, "railway": "monorail", "bench": null, "bin": null, "lit": null, "tactile_paving": null, "wheelchair": null, "bridge": "yes", "name": "SFO AirTrain", "railway:cbtc": "uto", "railway:preferred_direction": null, "service": "crossover", "bridge:structure": null }, "geometry": { "type": "LineString", "coordinates": [ [ -122.4012136, 37.6285399 ], [ -122.4012214, 37.6285745 ], [ -122.4012275, 37.6285924 ], [ -122.401238, 37.6286141 ], [ -122.4012531, 37.6286353 ], [ -122.4012687, 37.628654 ], [ -122.4012898, 37.6286726 ], [ -122.401317, 37.6286948 ], [ -122.4013345, 37.6287107 ], [ -122.4013501, 37.6287274 ], [ -122.4013634, 37.6287463 ], [ -122.4013727, 37.6287627 ], [ -122.4013795, 37.6287781 ], [ -122.4013836, 37.6287911 ], [ -122.4013907, 37.6288199 ] ] } },
{ "type": "Feature", "properties": { "id": "way/286832376", "@id": "way/286832376", "area": null, "covered": null, "indoor": null, "layer": "5", "level": null, "monorail": "rubber_tyres", "network": null, "public_transport": null, "railway": "monorail", "bench": null, "bin": null, "lit": null, "tactile_paving": null, "wheelchair": null, "bridge": "yes", "name": "SFO AirTrain", "railway:cbtc": "uto", "railway:preferred_direction": "forward", "service": null, "bridge:structure": null }, "geometry": { "type": "LineString", "coordinates": [ [ -122.400735, 37.6256678 ], [ -122.4008911, 37.6261327 ], [ -122.4009105, 37.6261943 ], [ -122.4009294, 37.6262583 ], [ -122.4009453, 37.6263219 ], [ -122.4009612, 37.6263927 ], [ -122.400973, 37.6264533 ], [ -122.4009826, 37.6265176 ], [ -122.4009913, 37.6265849 ], [ -122.4010683, 37.6272355 ], [ -122.4010757, 37.6272999 ], [ -122.4010787, 37.6273364 ], [ -122.4010805, 37.6273719 ], [ -122.4010812, 37.6274055 ], [ -122.4010809, 37.6274376 ], [ -122.4010785, 37.6275078 ], [ -122.4010763, 37.6275772 ], [ -122.4010754, 37.627612 ], [ -122.4010756, 37.6276431 ], [ -122.4010774, 37.6276805 ], [ -122.4010801, 37.6277105 ], [ -122.4010841, 37.6277413 ], [ -122.4010878, 37.6277672 ], [ -122.4011027, 37.6278568 ], [ -122.4011856, 37.6283712 ] ] } },
{ "type": "Feature", "properties": { "id": "way/427295091", "@id": "way/427295091", "area": null, "covered": null, "indoor": null, "layer": "5", "level": null, "monorail": "rubber_tyres", "network": null, "public_transport": null, "railway": "monorail", "bench": null, "bin": null, "lit": null, "tactile_paving": null, "wheelchair": null, "bridge": "yes", "name": "SFO AirTrain", "railway:cbtc": "uto", "railway:preferred_direction": "forward", "service": null, "bridge:structure": "beam" }, "geometry": { "type": "LineString", "coordinates": [ [ -122.4012554, 37.6279938 ], [ -122.4011864, 37.6275699 ], [ -122.401125, 37.6271957 ], [ -122.4011148, 37.6271268 ], [ -122.4011053, 37.6270603 ], [ -122.401096, 37.6269915 ], [ -122.4010874, 37.6269232 ], [ -122.4010464, 37.6265827 ], [ -122.4010307, 37.6264493 ], [ -122.4010221, 37.626387 ], [ -122.4010103, 37.6263141 ], [ -122.4009965, 37.6262481 ], [ -122.4009803, 37.6261817 ], [ -122.4009617, 37.6261171 ], [ -122.4008859, 37.6258854 ], [ -122.4007698, 37.625544 ], [ -122.4002046, 37.6238611 ], [ -122.400105, 37.6235644 ], [ -122.400083, 37.6234972 ], [ -122.4000622, 37.6234315 ], [ -122.400023, 37.623299 ], [ -122.3999961, 37.6231999 ], [ -122.3999134, 37.622885 ], [ -122.3998809, 37.6227601 ], [ -122.3998528, 37.6226575 ], [ -122.3998239, 37.6225582 ], [ -122.3997831, 37.62243 ], [ -122.399652, 37.6220419 ], [ -122.3994774, 37.6215289 ], [ -122.399423, 37.6213653 ], [ -122.3993923, 37.6212786 ], [ -122.3993547, 37.6211808 ], [ -122.3993261, 37.6211095 ], [ -122.3992942, 37.6210261 ], [ -122.3992681, 37.6209582 ], [ -122.3992434, 37.6208934 ], [ -122.3992196, 37.6208287 ], [ -122.3991966, 37.6207609 ], [ -122.3990851, 37.6204322 ], [ -122.3990606, 37.6203638 ], [ -122.3990363, 37.6203016 ], [ -122.3990106, 37.6202364 ], [ -122.3989817, 37.6201678 ], [ -122.398771, 37.6196823 ], [ -122.3987444, 37.6196188 ], [ -122.3987174, 37.6195526 ], [ -122.3986921, 37.6194887 ], [ -122.3986662, 37.6194197 ], [ -122.3986294, 37.6193224 ], [ -122.3974683, 37.6161401 ], [ -122.3974497, 37.6160901 ], [ -122.3974312, 37.6160408 ], [ -122.3974179, 37.6160105 ], [ -122.3974028, 37.6159788 ], [ -122.3973852, 37.6159465 ], [ -122.3973655, 37.615914 ], [ -122.3973471, 37.6158875 ], [ -122.3973236, 37.6158586 ], [ -122.3972973, 37.6158297 ], [ -122.3972686, 37.6158016 ], [ -122.3972406, 37.6157777 ], [ -122.3972118, 37.6157545 ], [ -122.3971771, 37.6157302 ], [ -122.3971425, 37.6157084 ], [ -122.397109, 37.6156902 ], [ -122.397073, 37.6156724 ], [ -122.3970333, 37.6156555 ], [ -122.3969953, 37.6156413 ], [ -122.3969558, 37.6156285 ], [ -122.3969185, 37.6156181 ], [ -122.396878, 37.6156089 ], [ -122.3968388, 37.6156013 ], [ -122.3968088, 37.6155971 ], [ -122.3967782, 37.6155941 ], [ -122.3967409, 37.615591 ], [ -122.3966917, 37.6155883 ], [ -122.3966408, 37.6155871 ], [ -122.3965825, 37.6155868 ], [ -122.3962553, 37.6155893 ], [ -122.3959993, 37.6155905 ], [ -122.3957445, 37.6155907 ], [ -122.395702, 37.6155904 ], [ -122.3956618, 37.6155893 ], [ -122.3956173, 37.6155863 ], [ -122.3955721, 37.6155814 ], [ -122.3955342, 37.6155753 ], [ -122.3954929, 37.6155664 ], [ -122.3954594, 37.6155575 ], [ -122.3954301, 37.615548 ], [ -122.3953974, 37.615536 ], [ -122.3953583, 37.6155197 ], [ -122.3953226, 37.6155022 ], [ -122.3952886, 37.6154827 ], [ -122.395254, 37.6154594 ], [ -122.3952224, 37.6154353 ], [ -122.3951937, 37.6154109 ], [ -122.395168, 37.6153857 ], [ -122.3951426, 37.6153565 ], [ -122.3951186, 37.615325 ], [ -122.3950998, 37.6152962 ], [ -122.395083, 37.6152649 ], [ -122.3950685, 37.6152321 ], [ -122.395057, 37.6151978 ], [ -122.3950484, 37.6151655 ], [ -122.3950428, 37.6151332 ], [ -122.3950386, 37.615098 ], [ -122.3950366, 37.6150647 ], [ -122.3950357, 37.6150365 ], [ -122.3950353, 37.6150025 ], [ -122.3950354, 37.6148644 ] ] } },
{ "type": "Feature", "properties": { "id": "way/587355839", "@id": "way/587355839", "area": null, "covered": null, "indoor": null, "layer": "5", "level": null, "monorail": "rubber_tyres", "network": null, "public_transport": null, "railway": "monorail", "bench": null, "bin": null, "lit": null, "tactile_paving": null, "wheelchair": null, "bridge": "yes", "name": "SFO AirTrain", "railway:cbtc": "uto", "railway:preferred_direction": "forward", "service": null, "bridge:structure": null }, "geometry": { "type": "LineString", "coordinates": [ [ -122.4012136, 37.6285399 ], [ -122.4013215, 37.629199 ], [ -122.4013324, 37.6292677 ], [ -122.4013418, 37.629336 ], [ -122.4013458, 37.6293715 ], [ -122.4013473, 37.6294039 ], [ -122.4013478, 37.6294371 ], [ -122.4013467, 37.629472 ], [ -122.4013433, 37.6295079 ], [ -122.4013393, 37.6295407 ], [ -122.4013337, 37.6295736 ], [ -122.4013257, 37.6296088 ], [ -122.4013156, 37.6296433 ], [ -122.4013051, 37.6296752 ], [ -122.401295, 37.6297026 ], [ -122.4012791, 37.6297407 ], [ -122.4012643, 37.6297718 ], [ -122.4012488, 37.6298005 ], [ -122.4012323, 37.6298289 ], [ -122.4012142, 37.6298591 ], [ -122.4011746, 37.6299213 ], [ -122.400543, 37.6308775 ] ] } },
{ "type": "Feature", "properties": { "id": "way/663272146", "@id": "way/663272146", "area": null, "covered": null, "indoor": null, "layer": "1", "level": null, "monorail": "rubber_tyres", "network": null, "public_transport": null, "railway": "monorail", "bench": null, "bin": null, "lit": null, "tactile_paving": null, "wheelchair": null, "bridge": "yes", "name": "SFO AirTrain", "railway:cbtc": "uto", "railway:preferred_direction": "forward", "service": null, "bridge:structure": null }, "geometry": { "type": "LineString", "coordinates": [ [ -122.3995859, 37.6336132 ], [ -122.3995593, 37.6335685 ], [ -122.39953, 37.6335179 ], [ -122.3995081, 37.6334784 ], [ -122.3994893, 37.633441 ], [ -122.3994704, 37.6334006 ], [ -122.3994482, 37.6333486 ], [ -122.3994252, 37.6332885 ], [ -122.3994037, 37.6332261 ], [ -122.3993853, 37.6331616 ], [ -122.3993715, 37.6330995 ], [ -122.3993599, 37.6330422 ], [ -122.3993501, 37.6329798 ], [ -122.3993465, 37.6328615 ], [ -122.3993496, 37.6327422 ], [ -122.3993643, 37.6326262 ], [ -122.3993869, 37.6325134 ], [ -122.3994089, 37.6324393 ], [ -122.399435, 37.6323599 ], [ -122.3995093, 37.6321943 ], [ -122.3995557, 37.6321146 ], [ -122.399615, 37.6320258 ], [ -122.3996677, 37.6319566 ], [ -122.3997243, 37.6318867 ], [ -122.3998506, 37.6317594 ], [ -122.3999758, 37.6316496 ], [ -122.4001443, 37.631505 ], [ -122.4002159, 37.6314338 ], [ -122.4002769, 37.6313626 ], [ -122.400389, 37.6312019 ], [ -122.400592, 37.6308977 ] ] } },
{ "type": "Feature", "properties": { "id": "way/663272147", "@id": "way/663272147", "area": null, "covered": null, "indoor": null, "layer": "1", "level": null, "monorail": "rubber_tyres", "network": null, "public_transport": null, "railway": "monorail", "bench": null, "bin": null, "lit": null, "tactile_paving": null, "wheelchair": null, "bridge": "yes", "name": "SFO AirTrain", "railway:cbtc": "uto", "railway:preferred_direction": "forward", "service": null, "bridge:structure": null }, "geometry": { "type": "LineString", "coordinates": [ [ -122.400543, 37.6308775 ], [ -122.4003418, 37.6311792 ], [ -122.4002336, 37.6313344 ], [ -122.4001039, 37.6314744 ], [ -122.3998068, 37.6317304 ], [ -122.3996773, 37.6318618 ], [ -122.3995629, 37.6320002 ], [ -122.3995031, 37.6320877 ], [ -122.3994496, 37.6321763 ], [ -122.3993787, 37.6323344 ], [ -122.3993482, 37.6324154 ], [ -122.3993214, 37.6324982 ], [ -122.3992965, 37.6326113 ], [ -122.3992812, 37.6327282 ], [ -122.3992798, 37.6328551 ], [ -122.3992837, 37.6329837 ], [ -122.3992884, 37.633052 ], [ -122.3992985, 37.6331092 ], [ -122.399313, 37.6331761 ], [ -122.3993306, 37.6332408 ], [ -122.3993539, 37.6333093 ], [ -122.3993772, 37.6333668 ], [ -122.3993996, 37.6334181 ], [ -122.3994205, 37.6334626 ], [ -122.3994386, 37.6334997 ], [ -122.3994621, 37.6335428 ], [ -122.3994899, 37.6335918 ], [ -122.3996247, 37.6338157 ] ] } },
{ "type": "Feature", "properties": { "id": "way/663272149", "@id": "way/663272149", "area": null, "covered": null, "indoor": null, "layer": "1", "level": null, "monorail": "rubber_tyres", "network": null, "public_transport": null, "railway": "monorail", "bench": null, "bin": null, "lit": null, "tactile_paving": null, "wheelchair": null, "bridge": "yes", "name": "SFO AirTrain", "railway:cbtc": "uto", "railway:preferred_direction": null, "service": "crossover", "bridge:structure": null }, "geometry": { "type": "LineString", "coordinates": [ [ -122.4001638, 37.6345797 ], [ -122.4001341, 37.6345447 ], [ -122.4001171, 37.6345276 ], [ -122.4000954, 37.6345102 ], [ -122.4000724, 37.6344959 ], [ -122.4000491, 37.6344854 ], [ -122.4000242, 37.6344759 ], [ -122.3999739, 37.6344608 ], [ -122.3999485, 37.634451 ], [ -122.3999236, 37.6344381 ], [ -122.399898, 37.6344219 ], [ -122.399878, 37.6344059 ], [ -122.3998606, 37.634388 ], [ -122.3998376, 37.6343561 ] ] } },
{ "type": "Feature", "properties": { "id": "way/700618561", "@id": "way/700618561", "area": null, "covered": null, "indoor": null, "layer": "5", "level": null, "monorail": "rubber_tyres", "network": null, "public_transport": null, "railway": "monorail", "bench": null, "bin": null, "lit": null, "tactile_paving": null, "wheelchair": null, "bridge": "yes", "name": "SFO AirTrain", "railway:cbtc": "uto", "railway:preferred_direction": "forward", "service": null, "bridge:structure": "beam" }, "geometry": { "type": "LineString", "coordinates": [ [ -122.4013907, 37.6288199 ], [ -122.4012554, 37.6279938 ] ] } },
{ "type": "Feature", "properties": { "id": "way/700618562", "@id": "way/700618562", "area": null, "covered": null, "indoor": null, "layer": "5", "level": null, "monorail": "rubber_tyres", "network": null, "public_transport": null, "railway": "monorail", "bench": null, "bin": null, "lit": null, "tactile_paving": null, "wheelchair": null, "bridge": "yes", "name": "SFO AirTrain", "railway:cbtc": "uto", "railway:preferred_direction": "forward", "service": null, "bridge:structure": null }, "geometry": { "type": "LineString", "coordinates": [ [ -122.4011856, 37.6283712 ], [ -122.4012136, 37.6285399 ] ] } },
{ "type": "Feature", "properties": { "id": "way/700618563", "@id": "way/700618563", "area": null, "covered": null, "indoor": null, "layer": "5", "level": null, "monorail": "rubber_tyres", "network": null, "public_transport": null, "railway": "monorail", "bench": null, "bin": null, "lit": null, "tactile_paving": null, "wheelchair": null, "bridge": "yes", "name": "SFO AirTrain", "railway:cbtc": "uto", "railway:preferred_direction": "forward", "service": null, "bridge:structure": null }, "geometry": { "type": "LineString", "coordinates": [ [ -122.3950354, 37.6148644 ], [ -122.3950297, 37.6143078 ], [ -122.3950253, 37.6138308 ], [ -122.3950245, 37.6137958 ], [ -122.3950213, 37.6137619 ], [ -122.3950167, 37.6137289 ], [ -122.3950104, 37.6136965 ], [ -122.3950005, 37.6136595 ], [ -122.3949891, 37.6136271 ], [ -122.3949757, 37.6135962 ], [ -122.3949582, 37.6135622 ], [ -122.3949393, 37.6135313 ], [ -122.3949204, 37.6135025 ], [ -122.3948988, 37.613475 ], [ -122.3948756, 37.6134486 ], [ -122.3948447, 37.6134183 ], [ -122.3948165, 37.6133936 ], [ -122.3947859, 37.6133701 ], [ -122.3947513, 37.6133457 ], [ -122.3947183, 37.6133252 ], [ -122.3946828, 37.6133061 ], [ -122.3946475, 37.6132888 ], [ -122.3946093, 37.6132725 ], [ -122.3945683, 37.6132574 ], [ -122.3945193, 37.6132427 ], [ -122.3944673, 37.6132307 ], [ -122.3944166, 37.613222 ], [ -122.3943696, 37.6132158 ], [ -122.3943226, 37.6132126 ], [ -122.3942746, 37.6132115 ], [ -122.3942211, 37.6132139 ], [ -122.3941696, 37.6132192 ], [ -122.3941137, 37.6132274 ], [ -122.3940539, 37.6132392 ], [ -122.3939981, 37.6132514 ], [ -122.3939365, 37.613266 ], [ -122.3931272, 37.6134657 ], [ -122.3911823, 37.6139445 ], [ -122.3906537, 37.6140747 ] ] } },
{ "type": "Feature", "properties": { "id": "way/1086806517", "@id": "way/1086806517", "area": null, "covered": null, "indoor": null, "layer": "1", "level": null, "monorail": "rubber_tyres", "network": null, "public_transport": null, "railway": "monorail", "bench": null, "bin": null, "lit": null, "tactile_paving": null, "wheelchair": null, "bridge": "yes", "name": "SFO AirTrain", "railway:cbtc": "uto", "railway:preferred_direction": null, "service": null, "bridge:structure": null }, "geometry": { "type": "LineString", "coordinates": [ [ -122.3998376, 37.6343561 ], [ -122.4002997, 37.6351305 ] ] } },
{ "type": "Feature", "properties": { "id": "way/1086806518", "@id": "way/1086806518", "area": null, "covered": null, "indoor": null, "layer": "1", "level": null, "monorail": "rubber_tyres", "network": null, "public_transport": null, "railway": "monorail", "bench": null, "bin": null, "lit": null, "tactile_paving": null, "wheelchair": null, "bridge": "yes", "name": "SFO AirTrain", "railway:cbtc": "uto", "railway:preferred_direction": null, "service": null, "bridge:structure": null }, "geometry": { "type": "LineString", "coordinates": [ [ -122.40052, 37.6351742 ], [ -122.4004608, 37.6350784 ] ] } },
{ "type": "Feature", "properties": { "id": "way/1090178807", "@id": "way/1090178807", "area": null, "covered": null, "indoor": null, "layer": "1", "level": null, "monorail": "rubber_tyres", "network": null, "public_transport": null, "railway": "monorail", "bench": null, "bin": null, "lit": null, "tactile_paving": null, "wheelchair": null, "bridge": "yes", "name": "SFO AirTrain", "railway:cbtc": "uto", "railway:preferred_direction": null, "service": null, "bridge:structure": null }, "geometry": { "type": "LineString", "coordinates": [ [ -122.4001638, 37.6345797 ], [ -122.3995859, 37.6336132 ] ] } },
{ "type": "Feature", "properties": { "id": "way/1090178808", "@id": "way/1090178808", "area": null, "covered": null, "indoor": null, "layer": "1", "level": null, "monorail": "rubber_tyres", "network": null, "public_transport": null, "railway": "monorail", "bench": null, "bin": null, "lit": null, "tactile_paving": null, "wheelchair": null, "bridge": "yes", "name": "SFO AirTrain", "railway:cbtc": "uto", "railway:preferred_direction": null, "service": null, "bridge:structure": null }, "geometry": { "type": "LineString", "coordinates": [ [ -122.3996247, 37.6338157 ], [ -122.399663, 37.6338802 ], [ -122.3996782, 37.6339092 ], [ -122.3996913, 37.6339363 ], [ -122.3997019, 37.6339638 ], [ -122.3997106, 37.6339942 ], [ -122.3997186, 37.6340256 ], [ -122.3997492, 37.6341665 ], [ -122.3997576, 37.6341973 ], [ -122.3997671, 37.6342267 ], [ -122.3997781, 37.6342519 ], [ -122.399793, 37.6342801 ], [ -122.399811, 37.6343121 ], [ -122.3998376, 37.6343561 ] ] } },
{ "type": "Feature", "properties": { "id": "way/1090178809", "@id": "way/1090178809", "area": null, "covered": null, "indoor": null, "layer": "1", "level": null, "monorail": "rubber_tyres", "network": null, "public_transport": null, "railway": "monorail", "bench": null, "bin": null, "lit": null, "tactile_paving": null, "wheelchair": null, "bridge": "yes", "name": "SFO AirTrain", "railway:cbtc": "uto", "railway:preferred_direction": null, "service": null, "bridge:structure": null }, "geometry": { "type": "LineString", "coordinates": [ [ -122.4002997, 37.6351305 ], [ -122.400361, 37.6352337 ] ] } },
{ "type": "Feature", "properties": { "id": "way/1090178810", "@id": "way/1090178810", "area": null, "covered": null, "indoor": null, "layer": "1", "level": null, "monorail": "rubber_tyres", "network": null, "public_transport": null, "railway": "monorail", "bench": null, "bin": null, "lit": null, "tactile_paving": null, "wheelchair": null, "bridge": "yes", "name": "SFO AirTrain", "railway:cbtc": "uto", "railway:preferred_direction": null, "service": null, "bridge:structure": null }, "geometry": { "type": "LineString", "coordinates": [ [ -122.4004608, 37.6350784 ], [ -122.4001638, 37.6345797 ] ] } }
]
}
