{
"type": "FeatureCollection",
"name": "red_line_sfo",
"crs": { "type": "name", "properties": { "name": "urn:ogc:def:crs:OGC:1.3:CRS84" } },
"features": [
{ "type": "Feature", "properties": { "id": "way/93671426", "@id": "way/93671426", "area": null, "covered": null, "indoor": null, "layer": "5", "level": "3", "monorail": "rubber_tyres", "network": null, "public_transport": null, "railway": "monorail", "bench": null, "bin": null, "lit": null, "tactile_paving": null, "wheelchair": null, "bridge": "yes", "name": "SFO AirTrain", "railway:cbtc": "uto", "railway:preferred_direction": "forward", "service": null, "bridge:structure": null }, "geometry": { "type": "LineString", "coordinates": [ [ -122.3894412, 37.6166052 ], [ -122.3886713, 37.6167936 ], [ -122.3886094, 37.616809 ], [ -122.3885461, 37.6168252 ], [ -122.3884866, 37.616842 ], [ -122.3884259, 37.6168598 ], [ -122.3883761, 37.616875 ], [ -122.3883287, 37.6168901 ], [ -122.3882716, 37.6169088 ], [ -122.3882146, 37.6169291 ], [ -122.387317, 37.6172718 ], [ -122.3872749, 37.6172876 ], [ -122.3872352, 37.6173021 ], [ -122.3871971, 37.6173153 ], [ -122.387159, 37.6173279 ], [ -122.3871237, 37.6173391 ], [ -122.3870867, 37.61735 ], [ -122.3870604, 37.6173576 ], [ -122.3870301, 37.6173658 ], [ -122.3869885, 37.6173763 ], [ -122.3862131, 37.6175671 ], [ -122.3861235, 37.6175892 ], [ -122.3860835, 37.6175981 ], [ -122.3860395, 37.6176065 ], [ -122.3859954, 37.6176125 ], [ -122.3859543, 37.6176153 ], [ -122.3859117, 37.6176152 ], [ -122.3858685, 37.6176127 ], [ -122.3858255, 37.6176074 ], [ -122.3857845, 37.6175991 ], [ -122.3857421, 37.6175876 ], [ -122.3857043, 37.6175749 ], [ -122.3856664, 37.6175606 ], [ -122.3856269, 37.617545 ], [ -122.3850931, 37.6173207 ], [ -122.3850563, 37.6173043 ], [ -122.385018, 37.6172857 ], [ -122.3849894, 37.6172701 ], [ -122.384966, 37.6172553 ], [ -122.3849409, 37.6172378 ], [ -122.3849151, 37.6172178 ], [ -122.3848941, 37.6171983 ], [ -122.3848727, 37.6171759 ], [ -122.3848482, 37.617146 ], [ -122.3848286, 37.6171169 ], [ -122.3848119, 37.6170869 ], [ -122.3847957, 37.6170532 ], [ -122.384782, 37.61702 ], [ -122.3845586, 37.6164428 ], [ -122.3845549, 37.6164333 ], [ -122.3845416, 37.6163974 ], [ -122.3845303, 37.6163616 ], [ -122.3845235, 37.6163294 ], [ -122.3845188, 37.6162971 ], [ -122.3845186, 37.6162622 ], [ -122.3845213, 37.6162262 ], [ -122.3845283, 37.6161933 ], [ -122.3845378, 37.6161605 ], [ -122.3845519, 37.6161262 ], [ -122.3845661, 37.6160996 ], [ -122.3845821, 37.616073 ], [ -122.3846023, 37.6160409 ], [ -122.3849039, 37.6155874 ], [ -122.3849262, 37.6155556 ], [ -122.3849481, 37.615528 ], [ -122.3849733, 37.6155021 ], [ -122.3850028, 37.6154762 ], [ -122.385026, 37.6154586 ], [ -122.3850487, 37.6154433 ], [ -122.3850743, 37.6154273 ], [ -122.3851036, 37.615412 ], [ -122.3851322, 37.6153993 ], [ -122.385166, 37.6153858 ], [ -122.3852051, 37.6153735 ], [ -122.3852441, 37.6153627 ], [ -122.3852832, 37.6153531 ], [ -122.3860501, 37.6151645 ], [ -122.3861084, 37.6151502 ], [ -122.3861529, 37.6151401 ], [ -122.3861958, 37.6151314 ], [ -122.3862392, 37.6151247 ], [ -122.3862784, 37.61512 ], [ -122.3863191, 37.615116 ], [ -122.3863632, 37.6151126 ], [ -122.3868614, 37.6150802 ], [ -122.3869117, 37.6150768 ], [ -122.3869539, 37.6150736 ], [ -122.3869911, 37.6150701 ], [ -122.3870332, 37.6150661 ], [ -122.387077, 37.6150611 ], [ -122.3871191, 37.6150559 ], [ -122.3871617, 37.6150496 ], [ -122.3872065, 37.6150422 ], [ -122.3872478, 37.6150346 ], [ -122.3872923, 37.6150254 ], [ -122.3873333, 37.6150163 ], [ -122.3873744, 37.6150063 ], [ -122.3890079, 37.6146046 ], [ -122.3899, 37.614386 ] ] } },
{ "type": "Feature", "properties": { "id": "way/700618564", "@id": "way/700618564", "area": null, "covered": null, "indoor": null, "layer": "5", "level": null, "monorail": "rubber_tyres", "network": null, "public_transport": null, "railway": "monorail", "bench": null, "bin": null, "lit": null, "tactile_paving": null, "wheelchair": null, "bridge": "yes", "name": "SFO AirTrain", "railway:cbtc": "uto", "railway:preferred_direction": "forward", "service": null, "bridge:structure": null }, "geometry": { "type": "LineString", "coordinates": [ [ -122.3899, 37.614386 ], [ -122.3910435, 37.614104 ], [ -122.3920957, 37.6138451 ], [ -122.393697, 37.613451 ], [ -122.3940432, 37.6133658 ], [ -122.3940981, 37.6133527 ], [ -122.3941572, 37.61334 ], [ -122.3941932, 37.6133331 ], [ -122.3942316, 37.6133267 ], [ -122.3942631, 37.6133228 ], [ -122.3942959, 37.6133204 ], [ -122.3943412, 37.6133192 ], [ -122.3943822, 37.6133202 ], [ -122.3944231, 37.6133232 ], [ -122.3944662, 37.6133288 ], [ -122.3945107, 37.6133381 ], [ -122.39455, 37.6133482 ], [ -122.3945885, 37.6133607 ], [ -122.3946322, 37.6133778 ], [ -122.3946666, 37.6133942 ], [ -122.3947007, 37.6134129 ], [ -122.3947343, 37.6134335 ], [ -122.3947663, 37.6134582 ], [ -122.3947969, 37.6134839 ], [ -122.394823, 37.6135093 ], [ -122.3948475, 37.6135362 ], [ -122.3948709, 37.6135676 ], [ -122.3948906, 37.6135988 ], [ -122.394907, 37.6136294 ], [ -122.39492, 37.6136607 ], [ -122.3949302, 37.6136924 ], [ -122.3949402, 37.6137338 ], [ -122.3949453, 37.6137669 ], [ -122.3949485, 37.6137974 ], [ -122.3949501, 37.6138314 ], [ -122.3949508, 37.6138603 ], [ -122.3949535, 37.6140786 ], [ -122.3949576, 37.614597 ], [ -122.394956, 37.6146636 ], [ -122.394954, 37.6147017 ], [ -122.3949516, 37.6147361 ], [ -122.3949482, 37.6147682 ], [ -122.3949419, 37.6148041 ], [ -122.3949351, 37.6148388 ], [ -122.3949258, 37.6148712 ], [ -122.3949158, 37.6149021 ], [ -122.3949024, 37.6149377 ], [ -122.3948878, 37.6149706 ], [ -122.3948725, 37.6150011 ], [ -122.3948565, 37.6150297 ], [ -122.3948361, 37.615063 ], [ -122.3948182, 37.6150889 ], [ -122.3948007, 37.6151125 ], [ -122.394781, 37.6151374 ], [ -122.3947584, 37.6151628 ], [ -122.3947318, 37.6151909 ], [ -122.3947053, 37.6152174 ], [ -122.3946785, 37.6152414 ], [ -122.3946473, 37.6152675 ], [ -122.3946145, 37.6152922 ], [ -122.3945829, 37.6153141 ], [ -122.3945508, 37.6153341 ], [ -122.3945144, 37.6153556 ], [ -122.3944786, 37.6153748 ], [ -122.3944425, 37.6153926 ], [ -122.3944067, 37.6154084 ], [ -122.3943661, 37.6154246 ], [ -122.3943268, 37.6154389 ], [ -122.3942883, 37.6154517 ], [ -122.3942505, 37.6154632 ], [ -122.3942067, 37.6154757 ], [ -122.3941395, 37.6154937 ], [ -122.3940657, 37.6155125 ], [ -122.3931992, 37.6157244 ], [ -122.393079, 37.6157553 ] ] } },
{ "type": "Feature", "properties": { "id": "way/700618565", "@id": "way/700618565", "area": null, "covered": null, "indoor": null, "layer": "5", "level": null, "monorail": "rubber_tyres", "network": null, "public_transport": null, "railway": "monorail", "bench": null, "bin": null, "lit": null, "tactile_paving": null, "wheelchair": null, "bridge": "yes", "name": "SFO AirTrain", "railway:cbtc": "uto", "railway:preferred_direction": "forward", "service": null, "bridge:structure": null }, "geometry": { "type": "LineString", "coordinates": [ [ -122.393079, 37.6157553 ], [ -122.3923938, 37.6159213 ] ] } },
{ "type": "Feature", "properties": { "id": "way/1090178811", "@id": "way/1090178811", "area": null, "covered": null, "indoor": null, "layer": "5", "level": "3", "monorail": "rubber_tyres", "network": null, "public_transport": null, "railway": "monorail", "bench": null, "bin": null, "lit": null, "tactile_paving": null, "wheelchair": null, "bridge": "yes", "name": "SFO AirTrain", "railway:cbtc": "uto", "railway:preferred_direction": "forward", "service": null, "bridge:structure": null }, "geometry": { "type": "LineString", "coordinates": [ [ -122.3923938, 37.6159213 ], [ -122.3923178, 37.6159371 ], [ -122.3922396, 37.6159483 ], [ -122.3920961, 37.6159631 ], [ -122.3920203, 37.6159748 ], [ -122.391947, 37.6159877 ], [ -122.3919094, 37.6159954 ], [ -122.3917472, 37.6160358 ], [ -122.3902764, 37.6163983 ], [ -122.3894412, 37.6166052 ] ] } }
]
}
